[{"OBJECT_NAME":"STARLINK-4454","OBJECT_ID":"2022-099AL","EPOCH":"2026-03-09T21:07:03.605376","MEAN_MOTION":15.05646203,"ECCENTRICITY":7.42e-5,"INCLINATION":97.604,"RA_OF_ASC_NODE":191.4609,"ARG_OF_PERICENTER":230.7408,"MEAN_ANOMALY":129.3753,"EPHEMERIS_TYPE":0,"CLASSIFICATION_TYPE":"U","NORAD_CAT_ID":53499,"ELEMENT_SET_NO":999,"REV_AT_EPOCH":19608,"BSTAR":3.8063679e-5,"MEAN_MOTION_DOT":4.88e-6,"MEAN_MOTION_DDOT":0},{"OBJECT_NAME":"NOAA 17 DEB","OBJECT_ID":"2002-032AW","EPOCH":"2026-03-09T06:42:02.833344","MEAN_MOTION":15.0155296,"ECCENTRICITY":0.0036655,"INCLINATION":98.9692,"RA_OF_ASC_NODE":191.508,"ARG_OF_PERICENTER":264.8759,"MEAN_ANOMALY":94.8277,"EPHEMERIS_TYPE":0,"CLASSIFICATION_TYPE":"U","NORAD_CAT_ID":48713,"ELEMENT_SET_NO":999,"REV_AT_EPOCH":26502,"BSTAR":0.0031489084,"MEAN_MOTION_DOT":0.00041514,"MEAN_MOTION_DDOT":0}]
